{
  "type": "FeatureCollection",
  "features": [
    {
      "type": "Feature",
      "properties": {
        "norad_id": 42988,
        "name": "SKYSAT-C10",
        "group": "resource",
        "lat": -32.1669727063517,
        "lon": -73.63172731654886,
        "alt_km": 475.84039862961527,
        "timestamp": "2025-12-06T05:40:08.893961+00:00",
        "meta_object_name": "SKYSAT-C10",
        "meta_object_id": "2017-068B",
        "meta_epoch": "2025-12-04T07:16:54.383808",
        "meta_mean_motion": 15.31835554,
        "meta_eccentricity": 0.0006971,
        "meta_inclination": 97.4228,
        "meta_ra_of_asc_node": 109.1352,
        "meta_arg_of_pericenter": 134.0692,
        "meta_mean_anomaly": 226.1124,
        "meta_ephemeris_type": 0,
        "meta_classification_type": "U",
        "meta_norad_cat_id": 42988,
        "meta_element_set_no": 999,
        "meta_rev_at_epoch": 45250,
        "meta_bstar": 0.00074085,
        "meta_mean_motion_dot": 0.00022753,
        "meta_mean_motion_ddot": 0,
        "tle_line1": "1 42988U 17068B   25338.30340722  .00022753  00000+0  74085-3 0  9990",
        "tle_line2": "2 42988  97.4228 109.1352 0006971 134.0692 226.1124 15.31835554452508"
      },
      "geometry": {
        "type": "Point",
        "coordinates": [
          -73.63172731654886,
          -32.1669727063517
        ]
      }
    },
    {
      "type": "Feature",
      "properties": {
        "norad_id": 42989,
        "name": "SKYSAT-C9",
        "group": "resource",
        "lat": -33.21584852431857,
        "lon": 115.33505280626677,
        "alt_km": 470.51470847452856,
        "timestamp": "2025-12-06T05:40:08.893972+00:00",
        "meta_object_name": "SKYSAT-C9",
        "meta_object_id": "2017-068C",
        "meta_epoch": "2025-12-05T07:55:21.826272",
        "meta_mean_motion": 15.35760455,
        "meta_eccentricity": 0.00106439,
        "meta_inclination": 97.4189,
        "meta_ra_of_asc_node": 109.5279,
        "meta_arg_of_pericenter": 111.7401,
        "meta_mean_anomaly": 248.4976,
        "meta_ephemeris_type": 0,
        "meta_classification_type": "U",
        "meta_norad_cat_id": 42989,
        "meta_element_set_no": 999,
        "meta_rev_at_epoch": 45294,
        "meta_bstar": 0.00064898703,
        "meta_mean_motion_dot": 0.00022574,
        "meta_mean_motion_ddot": 0,
        "tle_line1": "1 42989U 17068C   25339.33011373  .00022574  00000+0  64899-3 0  9995",
        "tle_line2": "2 42989  97.4189 109.5279 0010643 111.7401 248.4976 15.35760455452949"
      },
      "geometry": {
        "type": "Point",
        "coordinates": [
          115.33505280626677,
          -33.21584852431857
        ]
      }
    },
    {
      "type": "Feature",
      "properties": {
        "norad_id": 42990,
        "name": "SKYSAT-C8",
        "group": "resource",
        "lat": 10.043310936562179,
        "lon": 108.88549411451996,
        "alt_km": 468.0388071386051,
        "timestamp": "2025-12-06T05:40:08.893982+00:00",
        "meta_object_name": "SKYSAT-C8",
        "meta_object_id": "2017-068D",
        "meta_epoch": "2025-12-05T07:41:19.330368",
        "meta_mean_motion": 15.326728,
        "meta_eccentricity": 0.00020379,
        "meta_inclination": 97.428,
        "meta_ra_of_asc_node": 109.2902,
        "meta_arg_of_pericenter": 15.2362,
        "meta_mean_anomaly": 344.8941,
        "meta_ephemeris_type": 0,
        "meta_classification_type": "U",
        "meta_norad_cat_id": 42990,
        "meta_element_set_no": 999,
        "meta_rev_at_epoch": 45257,
        "meta_bstar": 0.00063389336,
        "meta_mean_motion_dot": 0.00019952,
        "meta_mean_motion_ddot": 0,
        "tle_line1": "1 42990U 17068D   25339.32036262  .00019952  00000+0  63389-3 0  9999",
        "tle_line2": "2 42990  97.4280 109.2902 0002037  15.2362 344.8941 15.32672800452570"
      },
      "geometry": {
        "type": "Point",
        "coordinates": [
          108.88549411451996,
          10.043310936562179
        ]
      }
    },
    {
      "type": "Feature",
      "properties": {
        "norad_id": 42991,
        "name": "SKYSAT-C7",
        "group": "resource",
        "lat": -58.823989043151734,
        "lon": -81.19763832420004,
        "alt_km": 481.81528734240874,
        "timestamp": "2025-12-06T05:40:08.893993+00:00",
        "meta_object_name": "SKYSAT-C7",
        "meta_object_id": "2017-068E",
        "meta_epoch": "2025-12-05T03:32:49.838784",
        "meta_mean_motion": 15.32073797,
        "meta_eccentricity": 0.00078966,
        "meta_inclination": 97.4286,
        "meta_ra_of_asc_node": 110.1642,
        "meta_arg_of_pericenter": 80.9254,
        "meta_mean_anomaly": 279.2881,
        "meta_ephemeris_type": 0,
        "meta_classification_type": "U",
        "meta_norad_cat_id": 42991,
        "meta_element_set_no": 999,
        "meta_rev_at_epoch": 45261,
        "meta_bstar": 0.00064678023,
        "meta_mean_motion_dot": 0.00019999,
        "meta_mean_motion_ddot": 0,
        "tle_line1": "1 42991U 17068E   25339.14779906  .00019999  00000+0  64678-3 0  9992",
        "tle_line2": "2 42991  97.4286 110.1642 0007896  80.9254 279.2881 15.32073797452615"
      },
      "geometry": {
        "type": "Point",
        "coordinates": [
          -81.19763832420004,
          -58.823989043151734
        ]
      }
    },
    {
      "type": "Feature",
      "properties": {
        "norad_id": 42992,
        "name": "SKYSAT-C6",
        "group": "resource",
        "lat": 15.600353861544164,
        "lon": 109.61100860423383,
        "alt_km": 472.4769129829001,
        "timestamp": "2025-12-06T05:40:08.894003+00:00",
        "meta_object_name": "SKYSAT-C6",
        "meta_object_id": "2017-068F",
        "meta_epoch": "2025-12-05T07:38:38.100192",
        "meta_mean_motion": 15.31255053,
        "meta_eccentricity": 0.00051728,
        "meta_inclination": 97.4322,
        "meta_ra_of_asc_node": 110.7801,
        "meta_arg_of_pericenter": 103.4888,
        "meta_mean_anomaly": 256.693,
        "meta_ephemeris_type": 0,
        "meta_classification_type": "U",
        "meta_norad_cat_id": 42992,
        "meta_element_set_no": 999,
        "meta_rev_at_epoch": 45262,
        "meta_bstar": 0.0006217754,
        "meta_mean_motion_dot": 0.00018725,
        "meta_mean_motion_ddot": 0,
        "tle_line1": "1 42992U 17068F   25339.31849653  .00018725  00000+0  62178-3 0  9998",
        "tle_line2": "2 42992  97.4322 110.7801 0005172 103.4888 256.6930 15.31255053452620"
      },
      "geometry": {
        "type": "Point",
        "coordinates": [
          109.61100860423383,
          15.600353861544164
        ]
      }
    },
    {
      "type": "Feature",
      "properties": {
        "norad_id": 43111,
        "name": "CARTOSAT-2F",
        "group": "resource",
        "lat": 46.01584128011489,
        "lon": 30.205203380965923,
        "alt_km": 504.3199554144103,
        "timestamp": "2025-12-06T05:40:08.894013+00:00",
        "meta_object_name": "CARTOSAT-2F",
        "meta_object_id": "2018-004A",
        "meta_epoch": "2025-12-05T07:20:01.021632",
        "meta_mean_motion": 15.19162723,
        "meta_eccentricity": 4.843e-05,
        "meta_inclination": 97.4331,
        "meta_ra_of_asc_node": 37.0637,
        "meta_arg_of_pericenter": 132.2395,
        "meta_mean_anomaly": 227.8881,
        "meta_ephemeris_type": 0,
        "meta_classification_type": "U",
        "meta_norad_cat_id": 43111,
        "meta_element_set_no": 999,
        "meta_rev_at_epoch": 43789,
        "meta_bstar": 0.00049080909,
        "meta_mean_motion_dot": 0.00010257,
        "meta_mean_motion_ddot": 0,
        "tle_line1": "1 43111U 18004A   25339.30556738  .00010257  00000+0  49081-3 0  9991",
        "tle_line2": "2 43111  97.4331  37.0637 0000484 132.2395 227.8881 15.19162723437890"
      },
      "geometry": {
        "type": "Point",
        "coordinates": [
          30.205203380965923,
          46.01584128011489
        ]
      }
    },
    {
      "type": "Feature",
      "properties": {
        "norad_id": 43259,
        "name": "GAOFEN-1 02",
        "group": "resource",
        "lat": 81.5720336650315,
        "lon": -68.43886869458048,
        "alt_km": 633.8796094853606,
        "timestamp": "2025-12-06T05:40:08.894024+00:00",
        "meta_object_name": "GAOFEN-1 02",
        "meta_object_id": "2018-031A",
        "meta_epoch": "2025-12-05T08:06:28.096416",
        "meta_mean_motion": 14.76456391,
        "meta_eccentricity": 0.00013391,
        "meta_inclination": 98.0818,
        "meta_ra_of_asc_node": 37.1243,
        "meta_arg_of_pericenter": 245.2818,
        "meta_mean_anomaly": 114.8252,
        "meta_ephemeris_type": 0,
        "meta_classification_type": "U",
        "meta_norad_cat_id": 43259,
        "meta_element_set_no": 999,
        "meta_rev_at_epoch": 41409,
        "meta_bstar": 0.00030412338,
        "meta_mean_motion_dot": 2.064e-05,
        "meta_mean_motion_ddot": 0,
        "tle_line1": "1 43259U 18031A   25339.33782519  .00002064  00000+0  30412-3 0  9990",
        "tle_line2": "2 43259  98.0818  37.1243 0001339 245.2818 114.8252 14.76456391414092"
      },
      "geometry": {
        "type": "Point",
        "coordinates": [
          -68.43886869458048,
          81.5720336650315
        ]
      }
    }
  ]
}